{"fetched_at":"2026-03-29T16:36:15Z","count":15609,"tles":[{"name":"STARLINK-11473 [DTC]","line1":"1 62060U 24217D   26087.93983886  .00194475  00000+0  15747-2 0  9992","line2":"2 62060  53.1573 336.6054 0001064  65.6476 294.4652 15.69679789 78196","category":"Starlink"}]}